$$SOE
2460721.500000000, A.D. 2025-Feb-15 00:00:00.0000, 2.330351605049916E+08, 1.154945976546956E+08, 3.208412095767219E+07,
2460728.500000000, A.D. 2025-Feb-22 00:00:00.0000, 2.269661467571605E+08, 1.269785799594039E+08, 3.695215293906230E+07,
2460735.500000000, A.D. 2025-Mar-01 00:00:00.0000, 2.202893850045963E+08, 1.381226297384495E+08, 4.172125298481641E+07,
2460742.500000000, A.D. 2025-Mar-08 00:00:00.0000, 2.130271239738588E+08, 1.488996528925984E+08, 4.637947839385111E+07,
2460749.500000000, A.D. 2025-Mar-15 00:00:00.0000, 2.052030042059771E+08, 1.592840450469059E+08, 5.091539227646568E+07,
2460756.500000000, A.D. 2025-Mar-22 00:00:00.0000, 1.968419309360012E+08, 1.692517410571603E+08, 5.531809029317468E+07,
2460763.500000000, A.D. 2025-Mar-29 00:00:00.0000, 1.879699481086549E+08, 1.787802520709242E+08, 5.957722309059180E+07,
2460770.500000000, A.D. 2025-Apr-05 00:00:00.0000, 1.786141148529429E+08, 1.878486936789370E+08, 6.368301476106013E+07,
2460777.500000000, A.D. 2025-Apr-12 00:00:00.0000, 1.688023833876986E+08, 1.964378057494373E+08, 6.762627764879411E+07,
2460784.500000000, A.D. 2025-Apr-19 00:00:00.0000, 1.585634789795025E+08, 2.045299636204377E+08, 7.139842361914280E+07,
2460791.500000000, A.D. 2025-Apr-26 00:00:00.0000, 1.479267829345241E+08, 2.121091810508573E+08, 7.499147194610238E+07,
2460798.500000000, A.D. 2025-May-03 00:00:00.0000, 1.369222193462158E+08, 2.191611055877566E+08, 7.839805402509004E+07,
2460805.500000000, A.D. 2025-May-10 00:00:00.0000, 1.255801461356040E+08, 2.256730070180507E+08, 8.161141513907075E+07,
2460812.500000000, A.D. 2025-May-17 00:00:00.0000, 1.139312508321941E+08, 2.316337595333823E+08, 8.462541351068348E+07,
2460819.500000000, A.D. 2025-May-24 00:00:00.0000, 1.020064515881797E+08, 2.370338182235142E+08, 8.743451686465317E+07,
2460826.500000000, A.D. 2025-May-31 00:00:00.0000, 8.983680407678458E+07, 2.418651908724521E+08, 9.003379673551370E+07,
2460833.500000000, A.D. 2025-Jun-07 00:00:00.0000, 7.745341403441377E+07, 2.461214069088544E+08, 9.241892090340477E+07,
2460840.500000000, A.D. 2025-Jun-14 00:00:00.0000, 6.488735316959465E+07, 2.497974834482297E+08, 9.458614435029878E+07,
2460847.500000000, A.D. 2025-Jun-21 00:00:00.0000, 5.216957965294587E+07, 2.528898857338757E+08, 9.653229857881349E+07,
2460854.500000000, A.D. 2025-Jun-28 00:00:00.0000, 3.933086627334435E+07, 2.553964843157871E+08, 9.825477938443890E+07,
2460861.500000000, A.D. 2025-Jul-05 00:00:00.0000, 2.640173466541222E+07, 2.573165116428196E+08, 9.975153360718726E+07,
2460868.500000000, A.D. 2025-Jul-12 00:00:00.0000, 1.341239428107846E+07, 2.586505177329310E+08, 1.010210450958248E+08,
2460875.500000000, A.D. 2025-Jul-19 00:00:00.0000, 3.926861199222674E+05, 2.594003247830330E+08, 1.020623200007807E+08,
2460882.500000000, A.D. 2025-Jul-26 00:00:00.0000, -1.262796877430987E+07, 2.595689810600603E+08, 1.028748715398407E+08,
2460889.500000000, A.D. 2025-Aug-02 00:00:00.0000, -2.562061621152937E+07, 2.591607144526683E+08, 1.034587043860342E+08,
2460896.500000000, A.D. 2025-Aug-09 00:00:00.0000, -3.855681136862279E+07, 2.581808859869937E+08, 1.038142988136375E+08,
2460903.500000000, A.D. 2025-Aug-16 00:00:00.0000, -5.140865709988986E+07, 2.566359435229149E+08, 1.039425947153835E+08,
2460910.500000000, A.D. 2025-Aug-23 00:00:00.0000, -6.414883802064000E+07, 2.545333758902512E+08, 1.038449755774796E+08,
2460917.500000000, A.D. 2025-Aug-30 00:00:00.0000, -7.675065031120396E+07, 2.518816683888025E+08, 1.035232525416095E+08,
2460924.500000000, A.D. 2025-Sep-06 00:00:00.0000, -8.918802893750313E+07, 2.486902608374652E+08, 1.029796488594147E+08,
2460931.500000000, A.D. 2025-Sep-13 00:00:00.0000, -1.014355742215920E+08, 2.449695058442584E+08, 1.022167847670818E+08,
2460938.500000000, A.D. 2025-Sep-20 00:00:00.0000, -1.134685747473605E+08, 2.407306257567385E+08, 1.012376623943913E+08,
2460945.500000000, A.D. 2025-Sep-27 00:00:00.0000, -1.252630258141309E+08, 2.359856714922718E+08, 1.000456509122145E+08,
2460952.500000000, A.D. 2025-Oct-04 00:00:00.0000, -1.367956457070684E+08, 2.307474838600439E+08, 9.864447218400776E+07,
2460959.500000000, A.D. 2025-Oct-11 00:00:00.0000, -1.480438904050611E+08, 2.250296564616917E+08, 9.703818689671296E+07,
2460966.500000000, A.D. 2025-Oct-18 00:00:00.0000, -1.589859666960605E+08, 2.188464999060129E+08, 9.523118114533865E+07,
2460973.500000000, A.D. 2025-Oct-25 00:00:00.0000, -1.696008438049586E+08, 2.122130073561950E+08, 9.322815348956585E+07,
2460980.500000000, A.D. 2025-Nov-01 00:00:00.0000, -1.798682637183882E+08, 2.051448214276235E+08, 9.103410250483084E+07,
2460987.500000000, A.D. 2025-Nov-08 00:00:00.0000, -1.897687503755956E+08, 1.976582023931234E+08, 8.865431483192071E+07,
2460994.500000000, A.D. 2025-Nov-15 00:00:00.0000, -1.992836177673274E+08, 1.897699976060365E+08, 8.609435370210814E+07,
2461001.500000000, A.D. 2025-Nov-22 00:00:00.0000, -2.083949767200047E+08, 1.814976123122177E+08, 8.336004790527208E+07,
2461008.500000000, A.D. 2025-Nov-29 00:00:00.0000, -2.170857406906823E+08, 1.728589829228602E+08, 8.045748129002325E+07,
2461015.500000000, A.D. 2025-Dec-06 00:00:00.0000, -2.253396330184035E+08, 1.638725525425286E+08, 7.739298297595665E+07,
2461022.500000000, A.D. 2025-Dec-13 00:00:00.0000, -2.331411953528021E+08, 1.545572453135902E+08, 7.417311794359294E+07,
2461029.500000000, A.D. 2025-Dec-20 00:00:00.0000, -2.404757938917508E+08, 1.449324405144608E+08, 7.080467773364714E+07,
2461036.500000000, A.D. 2025-Dec-27 00:00:00.0000, -2.473296246279991E+08, 1.350179488965627E+08, 6.729467153274503E+07,
2461043.500000000, A.D. 2026-Jan-03 00:00:00.0000, -2.536897191953863E+08, 1.248339905496908E+08, 6.365031770345541E+07,
2461050.500000000, A.D. 2026-Jan-10 00:00:00.0000, -2.595439513138832E+08, 1.144011735229944E+08, 5.987903566147986E+07,
2461057.500000000, A.D. 2026-Jan-17 00:00:00.0000, -2.648810436942515E+08, 1.037404730036474E+08, 5.598843803336428E+07,
2461064.500000000, A.D. 2026-Jan-24 00:00:00.0000, -2.696905754098809E+08, 9.287321096264970E+07, 5.198632304982220E+07,
2461071.500000000, A.D. 2026-Jan-31 00:00:00.0000, -2.739629897894553E+08, 8.182103614343098E+07, 4.788066713091527E+07,
2461078.500000000, A.D. 2026-Feb-07 00:00:00.0000, -2.776896028368310E+08, 7.060590421541315E+07, 4.367961761003183E+07,
2461085.500000000, A.D. 2026-Feb-14 00:00:00.0000, -2.808626119835591E+08, 5.925005795317733E+07, 3.939148552755220E+07,
2461092.500000000, A.D. 2026-Feb-21 00:00:00.0000, -2.834751048351649E+08, 4.777600789080531E+07, 3.502473845900190E+07,
2461099.500000000, A.D. 2026-Feb-28 00:00:00.0000, -2.855210690353948E+08, 3.620651447373419E+07, 3.058799352209754E+07,
2461106.500000000, A.D. 2026-Mar-07 00:00:00.0000, -2.869954053419762E+08, 2.456456962503603E+07, 2.609001054004870E+07,
2461113.500000000, A.D. 2026-Mar-14 00:00:00.0000, -2.878939411650667E+08, 1.287337526651623E+07, 2.153968485976533E+07,
2461120.500000000, A.D. 2026-Mar-21 00:00:00.0000, -2.882134427784072E+08, 1.156321570188158E+06, 1.694603983587012E+07,
2461127.500000000, A.D. 2026-Mar-28 00:00:00.0000, -2.879516281716655E+08, -1.056303417160662E+07, 1.231821918371535E+07,
2461134.500000000, A.D. 2026-Apr-04 00:00:00.0000, -2.871071811059802E+08, -2.226098918365111E+07, 7.665479117407462E+06,
2461141.500000000, A.D. 2026-Apr-11 00:00:00.0000, -2.856797660608853E+08, -3.391371787730226E+07, 2.997180164417280E+06,
2461148.500000000, A.D. 2026-Apr-18 00:00:00.0000, -2.836700438720391E+08, -4.549729572319102E+07, -1.677221409368984E+06,
2461155.500000000, A.D. 2026-Apr-25 00:00:00.0000, -2.810796879691237E+08, -5.698772447269617E+07, -6.348182621072061E+06,
2461162.500000000, A.D. 2026-May-02 00:00:00.0000, -2.779114011264781E+08, -6.836095890858778E+07, -1.100608330489073E+07,
2461169.500000000, A.D. 2026-May-09 00:00:00.0000, -2.741689325220600E+08, -7.959293533508411E+07, -1.564123624307866E+07,
2461176.500000000, A.D. 2026-May-16 00:00:00.0000, -2.698570946199136E+08, -9.065960181169598E+07, -2.024389798751327E+07,
2461183.500000000, A.D. 2026-May-23 00:00:00.0000, -2.649817796916611E+08, -1.015369492525699E+08, -2.480428036299324E+07,
2461190.500000000, A.D. 2026-May-30 00:00:00.0000, -2.595499779000351E+08, -1.122010432180382E+08, -2.931256250372978E+07,
2461197.500000000, A.D. 2026-Jun-06 00:00:00.0000, -2.535697970910318E+08, -1.226280598210685E+08, -3.375890372925667E+07,
2461204.500000000, A.D. 2026-Jun-13 00:00:00.0000, -2.470504804468376E+08, -1.327943256947961E+08, -3.813345764848258E+07,
2461211.500000000, A.D. 2026-Jun-20 00:00:00.0000, -2.400024222975354E+08, -1.426763592250169E+08, -4.242638727442165E+07,
2461218.500000000, A.D. 2026-Jun-27 00:00:00.0000, -2.324371835576134E+08, -1.522509134999805E+08, -4.662788108499017E+07,
2461225.500000000, A.D. 2026-Jul-04 00:00:00.0000, -2.243675065274133E+08, -1.614950218502826E+08, -5.072817015078428E+07,
2461232.500000000, A.D. 2026-Jul-11 00:00:00.0000, -2.158073285209252E+08, -1.703860461913191E+08, -5.471754641291984E+07,
2461239.500000000, A.D. 2026-Jul-18 00:00:00.0000, -2.067717939109381E+08, -1.789017282040124E+08, -5.858638215258000E+07,
2461246.500000000, A.D. 2026-Jul-25 00:00:00.0000, -1.972772642182135E+08, -1.870202434052524E+08, -6.232515067949575E+07,
2461253.500000000, A.D. 2026-Aug-01 00:00:00.0000, -1.873413258327010E+08, -1.947202582059689E+08, -6.592444827550503E+07,
2461260.500000000, A.D. 2026-Aug-08 00:00:00.0000, -1.769827947848032E+08, -2.019809900170598E+08, -6.937501744852450E+07,
2461267.500000000, A.D. 2026-Aug-15 00:00:00.0000, -1.662217177722449E+08, -2.087822699300573E+08, -7.266777152313493E+07,
2461274.500000000, A.D. 2026-Aug-22 00:00:00.0000, -1.550793697979046E+08, -2.151046066773512E+08, -7.579382040275052E+07,
2461281.500000000, A.D. 2026-Aug-29 00:00:00.0000, -1.435782502724339E+08, -2.209292531265239E+08, -7.874449738717453E+07,
2461288.500000000, A.D. 2026-Sep-05 00:00:00.0000, -1.317420749933795E+08, -2.262382780217897E+08, -8.151138743938681E+07,
$$EOE